[
    {
        "Altitude(m)": 565970.5809339401,
        "Argument of Periapsis(deg)": -0.022603160782972403,
        "Eccentricity": 0.0,
        "Inclination(deg)": 97.0,
        "Latitude(deg)": 4.467708441731043,
        "Longitude(deg)": -12.891528678145269,
        "Mean Anomaly(deg)": 4.61764326918749,
        "RAAN(deg)": 90.0059470536185,
        "Satellite Name": "Starlink Shell 3 1811",
        "Satellite Number": 1811,
        "Semi-Major Axis(m)": 6938478.169268562,
        "Time(s)": 570
    },
    {
        "Altitude(m)": 565922.5693554429,
        "Argument of Periapsis(deg)": -0.02299970746337543,
        "Eccentricity": 0.0,
        "Inclination(deg)": 97.0,
        "Latitude(deg)": 5.092127520196036,
        "Longitude(deg)": -13.00999408930916,
        "Mean Anomaly(deg)": 5.243119466892498,
        "RAAN(deg)": 90.00605138789253,
        "Satellite Name": "Starlink Shell 3 1811",
        "Satellite Number": 1811,
        "Semi-Major Axis(m)": 6938478.169268562,
        "Time(s)": 580
    },
    {
        "Altitude(m)": 565878.8657613728,
        "Argument of Periapsis(deg)": -0.023396254143778456,
        "Eccentricity": 0.0,
        "Inclination(deg)": 97.0,
        "Latitude(deg)": 5.716536742225936,
        "Longitude(deg)": -13.128608529196411,
        "Mean Anomaly(deg)": 5.868595664597607,
        "RAAN(deg)": 90.00615572216653,
        "Satellite Name": "Starlink Shell 3 1811",
        "Satellite Number": 1811,
        "Semi-Major Axis(m)": 6938478.169268562,
        "Time(s)": 590
    },
    {
        "Altitude(m)": 565839.4621508954,
        "Argument of Periapsis(deg)": -0.023792800824181483,
        "Eccentricity": 0.0,
        "Inclination(deg)": 97.0,
        "Latitude(deg)": 6.340933088220219,
        "Longitude(deg)": -13.247390700129984,
        "Mean Anomaly(deg)": 6.494071862302616,
        "RAAN(deg)": 90.00626005644054,
        "Satellite Name": "Starlink Shell 3 1811",
        "Satellite Number": 1811,
        "Semi-Major Axis(m)": 6938478.169268562,
        "Time(s)": 600
    },
    {
        "Altitude(m)": 565804.3484724294,
        "Argument of Periapsis(deg)": -0.024189347504584503,
        "Eccentricity": 0.0,
        "Inclination(deg)": 97.0,
        "Latitude(deg)": 6.96531353536886,
        "Longitude(deg)": -13.366359463622715,
        "Mean Anomaly(deg)": 7.119548060007624,
        "RAAN(deg)": 90.00636439071454,
        "Satellite Name": "Starlink Shell 3 1811",
        "Satellite Number": 1811,
        "Semi-Major Axis(m)": 6938478.169268562,
        "Time(s)": 610
    },
    {
        "Altitude(m)": 565773.5126321142,
        "Argument of Periapsis(deg)": -0.02458589418498753,
        "Eccentricity": 0.0,
        "Inclination(deg)": 97.0,
        "Latitude(deg)": 7.589675057465555,
        "Longitude(deg)": -13.485533354354263,
        "Mean Anomaly(deg)": 7.745024257712682,
        "RAAN(deg)": 90.00646872498854,
        "Satellite Name": "Starlink Shell 3 1811",
        "Satellite Number": 1811,
        "Semi-Major Axis(m)": 6938478.169268562,
        "Time(s)": 620
    },
    {
        "Altitude(m)": 565746.9405033004,
        "Argument of Periapsis(deg)": -0.024982440865390556,
        "Eccentricity": 0.0,
        "Inclination(deg)": 97.0,
        "Latitude(deg)": 8.214014624691329,
        "Longitude(deg)": -13.604931775475801,
        "Mean Anomaly(deg)": 8.37050045541774,
        "RAAN(deg)": 90.00657305926256,
        "Satellite Name": "Starlink Shell 3 1811",
        "Satellite Number": 1811,
        "Semi-Major Axis(m)": 6938478.169268562,
        "Time(s)": 630
    },
    {
        "Altitude(m)": 565724.6159370871,
        "Argument of Periapsis(deg)": -0.025378987545793576,
        "Eccentricity": 0.0,
        "Inclination(deg)": 97.0,
        "Latitude(deg)": 8.83832920337305,
        "Longitude(deg)": -13.724573672856478,
        "Mean Anomaly(deg)": 8.99597665312285,
        "RAAN(deg)": 90.00667739353656,
        "Satellite Name": "Starlink Shell 3 1811",
        "Satellite Number": 1811,
        "Semi-Major Axis(m)": 6938478.169268562,
        "Time(s)": 640
    },
    {
        "Altitude(m)": 565706.5207738607,
        "Argument of Periapsis(deg)": -0.025775534226196602,
        "Eccentricity": 0.0,
        "Inclination(deg)": 97.0,
        "Latitude(deg)": 9.462615755704011,
        "Longitude(deg)": -13.844478731223179,
        "Mean Anomaly(deg)": 9.621452850827858,
        "RAAN(deg)": 90.00678172781058,
        "Satellite Name": "Starlink Shell 3 1811",
        "Satellite Number": 1811,
        "Semi-Major Axis(m)": 6938478.169268562,
        "Time(s)": 650
    },
    {
        "Altitude(m)": 565692.6348558568,
        "Argument of Periapsis(deg)": -0.026172080906599626,
        "Eccentricity": 0.0,
        "Inclination(deg)": 97.0,
        "Latitude(deg)": 10.086871239432174,
        "Longitude(deg)": -13.9646668898099,
        "Mean Anomaly(deg)": 10.246929048532852,
        "RAAN(deg)": 90.0068860620846,
        "Satellite Name": "Starlink Shell 3 1811",
        "Satellite Number": 1811,
        "Semi-Major Axis(m)": 6938478.169268562,
        "Time(s)": 660
    },
    {
        "Altitude(m)": 565682.9360407387,
        "Argument of Periapsis(deg)": -0.026568627587002652,
        "Eccentricity": 0.0,
        "Inclination(deg)": 97.0,
        "Latitude(deg)": 10.711092607508332,
        "Longitude(deg)": -14.085157858531469,
        "Mean Anomaly(deg)": 10.872405246237962,
        "RAAN(deg)": 90.0069903963586,
        "Satellite Name": "Starlink Shell 3 1811",
        "Satellite Number": 1811,
        "Semi-Major Axis(m)": 6938478.169268562,
        "Time(s)": 670
    },
    {
        "Altitude(m)": 565677.4002161551,
        "Argument of Periapsis(deg)": -0.02696517426740568,
        "Eccentricity": 0.0,
        "Inclination(deg)": 97.0,
        "Latitude(deg)": 11.335276807689041,
        "Longitude(deg)": -14.205972147600345,
        "Mean Anomaly(deg)": 11.497881443942982,
        "RAAN(deg)": 90.0070947306326,
        "Satellite Name": "Starlink Shell 3 1811",
        "Satellite Number": 1811,
        "Semi-Major Axis(m)": 6938478.169268562,
        "Time(s)": 680
    },
    {
        "Altitude(m)": 565676.0013153005,
        "Argument of Periapsis(deg)": -0.0273617209478087,
        "Eccentricity": 0.0,
        "Inclination(deg)": 97.0,
        "Latitude(deg)": 11.959420782096716,
        "Longitude(deg)": -14.327130584888085,
        "Mean Anomaly(deg)": 12.12335764164799,
        "RAAN(deg)": 90.00719906490663,
        "Satellite Name": "Starlink Shell 3 1811",
        "Satellite Number": 1811,
        "Semi-Major Axis(m)": 6938478.169268562,
        "Time(s)": 690
    },
    {
        "Altitude(m)": 565678.7113334623,
        "Argument of Periapsis(deg)": -0.027758267628211725,
        "Eccentricity": 0.0,
        "Inclination(deg)": 97.0,
        "Latitude(deg)": 12.583521466729291,
        "Longitude(deg)": -14.44865383395496,
        "Mean Anomaly(deg)": 12.748833839353086,
        "RAAN(deg)": 90.00730339918063,
        "Satellite Name": "Starlink Shell 3 1811",
        "Satellite Number": 1811,
        "Semi-Major Axis(m)": 6938478.169268562,
        "Time(s)": 700
    },
    {
        "Altitude(m)": 565685.500345515,
        "Argument of Periapsis(deg)": -0.028154814308614752,
        "Eccentricity": 0.0,
        "Inclination(deg)": 97.0,
        "Latitude(deg)": 13.207575790913584,
        "Longitude(deg)": -14.57056342567337,
        "Mean Anomaly(deg)": 13.374310037058095,
        "RAAN(deg)": 90.00740773345464,
        "Satellite Name": "Starlink Shell 3 1811",
        "Satellite Number": 1811,
        "Semi-Major Axis(m)": 6938478.169268562,
        "Time(s)": 710
    },
    {
        "Altitude(m)": 565696.3365244033,
        "Argument of Periapsis(deg)": -0.02855136098901778,
        "Eccentricity": 0.0,
        "Inclination(deg)": 97.0,
        "Latitude(deg)": 13.83158067670489,
        "Longitude(deg)": -14.692881277753386,
        "Mean Anomaly(deg)": 13.999786234763203,
        "RAAN(deg)": 90.00751206772864,
        "Satellite Name": "Starlink Shell 3 1811",
        "Satellite Number": 1811,
        "Semi-Major Axis(m)": 6938478.169268562,
        "Time(s)": 720
    },
    {
        "Altitude(m)": 565711.1861605494,
        "Argument of Periapsis(deg)": -0.028947907669420805,
        "Eccentricity": 0.0,
        "Inclination(deg)": 97.0,
        "Latitude(deg)": 14.45553303822351,
        "Longitude(deg)": -14.815629215102579,
        "Mean Anomaly(deg)": 14.625262432468212,
        "RAAN(deg)": 90.00761640200267,
        "Satellite Name": "Starlink Shell 3 1811",
        "Satellite Number": 1811,
        "Semi-Major Axis(m)": 6938478.169268562,
        "Time(s)": 730
    },
    {
        "Altitude(m)": 565730.0136822123,
        "Argument of Periapsis(deg)": -0.029344454349823825,
        "Eccentricity": 0.0,
        "Inclination(deg)": 97.0,
        "Latitude(deg)": 15.079429780924444,
        "Longitude(deg)": -14.938830003953852,
        "Mean Anomaly(deg)": 15.25073863017322,
        "RAAN(deg)": 90.00772073627667,
        "Satellite Name": "Starlink Shell 3 1811",
        "Satellite Number": 1811,
        "Semi-Major Axis(m)": 6938478.169268562,
        "Time(s)": 740
    },
    {
        "Altitude(m)": 565752.7816767661,
        "Argument of Periapsis(deg)": -0.029741001030226845,
        "Eccentricity": 0.0,
        "Inclination(deg)": 97.0,
        "Latitude(deg)": 15.703267800798255,
        "Longitude(deg)": -15.062506874079547,
        "Mean Anomaly(deg)": 15.876214827878329,
        "RAAN(deg)": 90.00782507055067,
        "Satellite Name": "Starlink Shell 3 1811",
        "Satellite Number": 1811,
        "Semi-Major Axis(m)": 6938478.169268562,
        "Time(s)": 750
    }
]